0 IRIDIUM 33 DEB
1 34657U 97051KJ  13282.49614416  .00014408  00000-0  37295-2 0  8004
2 34657 086.3269 111.2070 0032677 146.3465 244.0814 14.49450209242321
0 IRIDIUM 33 DEB
1 34657U 97051KJ  13282.97363809  .00015322  00000-0  39813-2 0  8019
2 34657 086.3280 110.9992 0032399 144.7858 215.5985 14.49440315242398
0 IRIDIUM 33 DEB
1 34657U 97051KJ  13283.00328687  .00012885  00000-0  33352-2 0  8012
2 34657 086.3268 110.9853 0032723 144.7069 010.3125 14.49453996242403
0 IRIDIUM 33 DEB
1 34657U 97051KJ  13285.97159666  .00011633  00000-0  30072-2 0  8037
2 34657 086.3264 109.6891 0032933 135.1246 019.0549 14.49514226242837
0 IRIDIUM 33 DEB
1 34657U 97051KJ  13287.97346374  .00020682  00000-0  53381-2 0  8046
2 34657 086.3259 108.8149 0032993 128.7384 025.1611 14.49559528243120
0 IRIDIUM 33 DEB
1 34657U 97051KJ  13289.46833421  .00016491  00000-0  42537-2 0  8051
2 34657 086.3261 108.1620 0033027 123.9696 265.9319 14.49604757243339
0 IRIDIUM 33 DEB
1 34657U 97051KJ  13291.00606846  .00014337  00000-0  36955-2 0  8068
2 34657 086.3264 107.4907 0032947 118.9839 010.6800 14.49645818243563
0 IRIDIUM 33 DEB
1 34657U 97051KJ  13293.00774409  .00013456  00000-0  34649-2 0  8071
2 34657 086.3265 106.6157 0033021 112.6407 016.7143 14.49694518243858
0 IRIDIUM 33 DEB
1 34657U 97051KJ  13295.69897771  .00018349  00000-0  47169-2 0  8084
2 34657 086.3274 105.4400 0032870 103.9744 022.0265 14.49762900244244
